{
  "type": "FeatureCollection",
  "features": [
    {
      "type": "Feature",
      "properties": {
        "norad_id": 35210,
        "name": "FENGYUN 1C DEB",
        "group": "fengyun-1c-debris",
        "lat": 11.561771432722733,
        "lon": -174.92206010808894,
        "alt_km": 751.6654291531113,
        "timestamp": "2025-12-24T18:55:56.356379+00:00",
        "meta_object_name": "FENGYUN 1C DEB",
        "meta_object_id": "1999-025DPS",
        "meta_epoch": "2025-12-21T12:08:09.731616",
        "meta_mean_motion": 14.33731534,
        "meta_eccentricity": 0.00494304,
        "meta_inclination": 99.0977,
        "meta_ra_of_asc_node": 359.7491,
        "meta_arg_of_pericenter": 213.3561,
        "meta_mean_anomaly": 298.6151,
        "meta_ephemeris_type": 0,
        "meta_classification_type": "U",
        "meta_norad_cat_id": 35210,
        "meta_element_set_no": 999,
        "meta_rev_at_epoch": 90248,
        "meta_bstar": 0.0016885673,
        "meta_mean_motion_dot": 4.708e-05,
        "meta_mean_motion_ddot": 0,
        "tle_line1": "1 35210U 99025DPS 25355.50566819  .00004708  00000+0  16886-2 0  9995",
        "tle_line2": "2 35210  99.0977 359.7491 0049430 213.3561 298.6151 14.33731534902482"
      },
      "geometry": {
        "type": "Point",
        "coordinates": [
          -174.92206010808894,
          11.561771432722733
        ]
      }
    },
    {
      "type": "Feature",
      "properties": {
        "norad_id": 35217,
        "name": "FENGYUN 1C DEB",
        "group": "fengyun-1c-debris",
        "lat": -15.348605099503814,
        "lon": -80.25059227975176,
        "alt_km": 988.6890546763889,
        "timestamp": "2025-12-24T18:55:56.356389+00:00",
        "meta_object_name": "FENGYUN 1C DEB",
        "meta_object_id": "1999-025DPZ",
        "meta_epoch": "2025-12-16T00:31:46.822080",
        "meta_mean_motion": 13.57523725,
        "meta_eccentricity": 0.03020457,
        "meta_inclination": 101.8758,
        "meta_ra_of_asc_node": 265.8616,
        "meta_arg_of_pericenter": 288.6471,
        "meta_mean_anomaly": 68.209,
        "meta_ephemeris_type": 0,
        "meta_classification_type": "U",
        "meta_norad_cat_id": 35217,
        "meta_element_set_no": 999,
        "meta_rev_at_epoch": 61264,
        "meta_bstar": 0.0019543408,
        "meta_mean_motion_dot": 1.822e-05,
        "meta_mean_motion_ddot": 0,
        "tle_line1": "1 35217U 99025DPZ 25350.02206970  .00001822  00000+0  19543-2 0  9990",
        "tle_line2": "2 35217 101.8758 265.8616 0302045 288.6471  68.2090 13.57523725612648"
      },
      "geometry": {
        "type": "Point",
        "coordinates": [
          -80.25059227975176,
          -15.348605099503814
        ]
      }
    },
    {
      "type": "Feature",
      "properties": {
        "norad_id": 35220,
        "name": "FENGYUN 1C DEB",
        "group": "fengyun-1c-debris",
        "lat": 79.62683471077837,
        "lon": -50.59587847996045,
        "alt_km": 840.6452510679692,
        "timestamp": "2025-12-24T18:55:56.356399+00:00",
        "meta_object_name": "FENGYUN 1C DEB",
        "meta_object_id": "1999-025DQC",
        "meta_epoch": "2025-12-23T03:39:41.085504",
        "meta_mean_motion": 14.226262,
        "meta_eccentricity": 0.00439954,
        "meta_inclination": 99.0276,
        "meta_ra_of_asc_node": 67.4432,
        "meta_arg_of_pericenter": 276.7268,
        "meta_mean_anomaly": 82.8903,
        "meta_ephemeris_type": 0,
        "meta_classification_type": "U",
        "meta_norad_cat_id": 35220,
        "meta_element_set_no": 999,
        "meta_rev_at_epoch": 63331,
        "meta_bstar": 0.0016717154,
        "meta_mean_motion_dot": 3.73e-05,
        "meta_mean_motion_ddot": 0,
        "tle_line1": "1 35220U 99025DQC 25357.15255886  .00003730  00000+0  16717-2 0  9995",
        "tle_line2": "2 35220  99.0276  67.4432 0043995 276.7268  82.8903 14.22626200633312"
      },
      "geometry": {
        "type": "Point",
        "coordinates": [
          -50.59587847996045,
          79.62683471077837
        ]
      }
    },
    {
      "type": "Feature",
      "properties": {
        "norad_id": 35223,
        "name": "FENGYUN 1C DEB",
        "group": "fengyun-1c-debris",
        "lat": 42.157759332683256,
        "lon": -25.34957954257458,
        "alt_km": 633.9050566883761,
        "timestamp": "2025-12-24T18:55:56.356408+00:00",
        "meta_object_name": "FENGYUN 1C DEB",
        "meta_object_id": "1999-025DQF",
        "meta_epoch": "2025-12-22T10:17:58.154784",
        "meta_mean_motion": 14.89136656,
        "meta_eccentricity": 0.01274549,
        "meta_inclination": 98.9722,
        "meta_ra_of_asc_node": 340.202,
        "meta_arg_of_pericenter": 295.2743,
        "meta_mean_anomaly": 63.5308,
        "meta_ephemeris_type": 0,
        "meta_classification_type": "U",
        "meta_norad_cat_id": 35223,
        "meta_element_set_no": 999,
        "meta_rev_at_epoch": 94026,
        "meta_bstar": 0.00085325248,
        "meta_mean_motion_dot": 9.308e-05,
        "meta_mean_motion_ddot": 0,
        "tle_line1": "1 35223U 99025DQF 25356.42914531  .00009308  00000+0  85325-3 0  9995",
        "tle_line2": "2 35223  98.9722 340.2020 0127454 295.2743  63.5308 14.89136656940265"
      },
      "geometry": {
        "type": "Point",
        "coordinates": [
          -25.34957954257458,
          42.157759332683256
        ]
      }
    },
    {
      "type": "Feature",
      "properties": {
        "norad_id": 35229,
        "name": "FENGYUN 1C DEB",
        "group": "fengyun-1c-debris",
        "lat": 14.698313520826497,
        "lon": 75.80411567031425,
        "alt_km": 721.7344233091626,
        "timestamp": "2025-12-24T18:55:56.356418+00:00",
        "meta_object_name": "FENGYUN 1C DEB",
        "meta_object_id": "1999-025DQM",
        "meta_epoch": "2025-12-21T00:28:03.999936",
        "meta_mean_motion": 14.6104888,
        "meta_eccentricity": 0.00465106,
        "meta_inclination": 98.458,
        "meta_ra_of_asc_node": 74.1903,
        "meta_arg_of_pericenter": 189.9892,
        "meta_mean_anomaly": 170.0388,
        "meta_ephemeris_type": 0,
        "meta_classification_type": "U",
        "meta_norad_cat_id": 35229,
        "meta_element_set_no": 999,
        "meta_rev_at_epoch": 64627,
        "meta_bstar": 0.0032249287,
        "meta_mean_motion_dot": 0.00016061,
        "meta_mean_motion_ddot": 0,
        "tle_line1": "1 35229U 99025DQM 25355.01949074  .00016061  00000+0  32249-2 0  9995",
        "tle_line2": "2 35229  98.4580  74.1903 0046510 189.9892 170.0388 14.61048880646275"
      },
      "geometry": {
        "type": "Point",
        "coordinates": [
          75.80411567031425,
          14.698313520826497
        ]
      }
    },
    {
      "type": "Feature",
      "properties": {
        "norad_id": 35231,
        "name": "FENGYUN 1C DEB",
        "group": "fengyun-1c-debris",
        "lat": 46.63428008495396,
        "lon": -128.9802924170266,
        "alt_km": 835.5100372270608,
        "timestamp": "2025-12-24T18:55:56.356428+00:00",
        "meta_object_name": "FENGYUN 1C DEB",
        "meta_object_id": "1999-025DQP",
        "meta_epoch": "2025-12-20T02:16:05.023776",
        "meta_mean_motion": 14.14529124,
        "meta_eccentricity": 0.00379148,
        "meta_inclination": 98.7195,
        "meta_ra_of_asc_node": 37.0855,
        "meta_arg_of_pericenter": 64.705,
        "meta_mean_anomaly": 295.8044,
        "meta_ephemeris_type": 0,
        "meta_classification_type": "U",
        "meta_norad_cat_id": 35231,
        "meta_element_set_no": 999,
        "meta_rev_at_epoch": 91606,
        "meta_bstar": 2.8184415e-05,
        "meta_mean_motion_dot": 1.2e-07,
        "meta_mean_motion_ddot": 0,
        "tle_line1": "1 35231U 99025DQP 25354.09450259  .00000012  00000+0  28184-4 0  9991",
        "tle_line2": "2 35231  98.7195  37.0855 0037914  64.7050 295.8044 14.14529124916066"
      },
      "geometry": {
        "type": "Point",
        "coordinates": [
          -128.9802924170266,
          46.63428008495396
        ]
      }
    },
    {
      "type": "Feature",
      "properties": {
        "norad_id": 35233,
        "name": "FENGYUN 1C DEB",
        "group": "fengyun-1c-debris",
        "lat": -44.06221030594993,
        "lon": 106.84293094929197,
        "alt_km": 758.5225890976981,
        "timestamp": "2025-12-24T18:55:56.356438+00:00",
        "meta_object_name": "FENGYUN 1C DEB",
        "meta_object_id": "1999-025DQR",
        "meta_epoch": "2025-12-20T05:22:11.934336",
        "meta_mean_motion": 14.41946551,
        "meta_eccentricity": 0.0041838,
        "meta_inclination": 98.7729,
        "meta_ra_of_asc_node": 93.5583,
        "meta_arg_of_pericenter": 238.8758,
        "meta_mean_anomaly": 151.8442,
        "meta_ephemeris_type": 0,
        "meta_classification_type": "U",
        "meta_norad_cat_id": 35233,
        "meta_element_set_no": 999,
        "meta_rev_at_epoch": 91284,
        "meta_bstar": 0.0012725,
        "meta_mean_motion_dot": 4.169e-05,
        "meta_mean_motion_ddot": 0,
        "tle_line1": "1 35233U 99025DQR 25354.22374924  .00004169  00000+0  12725-2 0  9991",
        "tle_line2": "2 35233  98.7729  93.5583 0041838 238.8758 151.8442 14.41946551912847"
      },
      "geometry": {
        "type": "Point",
        "coordinates": [
          106.84293094929197,
          -44.06221030594993
        ]
      }
    }
  ]
}